[Satellite]
VERSION=1.1
NAME=CLUSTER II-FM6
NICKNAME=CLUSTER II-FM6
TLE1=1 26410U 00041A   15054.59489325 -.00000026  00000-0  00000+0 0  9996
TLE2=2 26410 132.8793 322.7359 6041254 135.7637 359.7034  0.44473877 13765
